NORAD_CAT_ID,OBJECT_NAME,OBJECT_TYPE,EPOCH,MEAN_MOTION,ECCENTRICITY,INCLINATION,RA_OF_ASC_NODE,ARG_OF_PERICENTER,MEAN_ANOMALY,BSTAR,MEAN_MOTION_DOT,MEAN_MOTION_DDOT,TLE_LINE0,TLE_LINE1,TLE_LINE2,SEMIMAJOR_AXIS,PERIOD,APOGEE,PERIGEE,DECAYED
54013.0,STARLINK-5098,PAYLOAD,2024-04-11 09:08:43,15.08843493,0.0001443,53.2162,94.4113,92.2609,267.8548,6.8659e-05,8.05e-06,0.0,0 STARLINK-5098,1 54013U 22125BB  24102.38106354  .00000805  00000-0  68659-4 0  9995,2 54013  53.2162  94.4113 0001443  92.2609 267.8548 15.08843493 84384,6917.87,95.437,540.733,538.736,0.0
54013.0,STARLINK-5098,PAYLOAD,2024-04-11 17:05:39,15.08838701,0.0001419,53.2165,92.924,93.6235,266.4919,5.3518e-05,5.64e-06,0.0,0 STARLINK-5098,1 54013U 22125BB  24102.71226715  .00000564  00000-0  53518-4 0  9996,2 54013  53.2165  92.9240 0001419  93.6235 266.4919 15.08838701 84387,6917.884,95.438,540.731,538.768,0.0
54013.0,STARLINK-5098,PAYLOAD,2024-04-12 04:13:21,15.08837472,0.000141,53.2163,90.8422,93.8178,266.2976,5.6265e-05,6.08e-06,0.0,0 STARLINK-5098,1 54013U 22125BB  24103.17594834  .00000608  00000-0  56265-4 0  9998,2 54013  53.2163  90.8422 0001410  93.8178 266.2976 15.08837472 84502,6917.888,95.438,540.729,538.778,0.0
54013.0,STARLINK-5098,PAYLOAD,2024-04-12 08:59:31,15.08839034,0.0001434,53.2168,89.9499,96.0917,264.0239,5.1871e-05,5.38e-06,0.0,0 STARLINK-5098,1 54013U 22125BB  24103.37466749  .00000538  00000-0  51871-4 0  9993,2 54013  53.2168  89.9499 0001434  96.0917 264.0239 15.08839034 84483,6917.883,95.438,540.74,538.756,0.0
54013.0,STARLINK-5098,PAYLOAD,2024-04-13 08:50:18,15.08839641,0.0001397,53.2171,85.4888,98.4006,261.7145,2.788e-05,1.56e-06,0.0,0 STARLINK-5098,1 54013U 22125BB  24104.36826880  .00000156  00000-0  27880-4 0  9998,2 54013  53.2171  85.4888 0001397  98.4006 261.7145 15.08839641 84689,6917.881,95.438,540.713,538.78,0.0
54013.0,STARLINK-5098,PAYLOAD,2024-04-14 08:41:05,15.08841786,0.0001493,53.2178,81.0281,105.2589,254.8569,9.1556e-05,1.17e-05,0.0,0 STARLINK-5098,1 54013U 22125BB  24105.36186670  .00001170  00000-0  91556-4 0  9993,2 54013  53.2178  81.0281 0001493 105.2589 254.8569 15.08841786 84782,6917.875,95.437,540.773,538.707,0.0
54013.0,STARLINK-5098,PAYLOAD,2024-04-15 03:45:42,15.08849955,0.0001475,53.2176,77.4602,103.3962,256.7195,0.00015907,2.245e-05,0.0,0 STARLINK-5098,1 54013U 22125BB  24106.15673906  .00002245  00000-0  15907-3 0  9993,2 54013  53.2176  77.4602 0001475 103.3962 256.7195 15.08849955 84951,6917.85,95.437,540.735,538.695,0.0
54013.0,STARLINK-5098,PAYLOAD,2024-04-15 08:31:51,15.0885395,0.0001528,53.2179,76.5672,106.6348,253.4812,0.00019167,2.765e-05,0.0,0 STARLINK-5098,1 54013U 22125BB  24106.35545482  .00002765  00000-0  19167-3 0  9991,2 54013  53.2179  76.5672 0001528 106.6348 253.4812 15.08853950 84932,6917.838,95.437,540.76,538.646,0.0
54013.0,STARLINK-5098,PAYLOAD,2024-04-16 03:36:31,15.08830663,0.0001666,53.2189,73.0091,104.3401,255.7776,-5.945e-05,-1.234e-05,0.0,0 STARLINK-5098,1 54013U 22125BB  24107.15035919 -.00001234  00000-0 -59450-4 0  9991,2 54013  53.2189  73.0091 0001666 104.3401 255.7776 15.08830663 85108,6917.909,95.438,540.926,538.621,0.0
54013.0,STARLINK-5098,PAYLOAD,2024-04-16 06:47:16,15.08837708,0.0001613,53.219,72.4066,93.6564,266.4612,-6.2497e-06,-3.87e-06,0.0,0 STARLINK-5098,1 54013U 22125BB  24107.28283398 -.00000387  00000-0 -62497-5 0  9995,2 54013  53.2190  72.4066 0001613  93.6564 266.4612 15.08837708 85124,6917.887,95.438,540.868,538.637,0.0
54013.0,STARLINK-5098,PAYLOAD,2024-04-16 14:44:11,15.08842664,0.0001714,53.2186,70.9222,89.8954,270.2234,3.9441e-05,3.4e-06,0.0,0 STARLINK-5098,1 54013U 22125BB  24107.61402707  .00000340  00000-0  39441-4 0  9998,2 54013  53.2186  70.9222 0001714  89.8954 270.2234 15.08842664 85128,6917.872,95.437,540.923,538.552,0.0
54013.0,STARLINK-5098,PAYLOAD,2024-04-17 01:51:53,15.08860875,0.0001555,53.2176,68.8414,90.7923,269.3248,0.000269,3.998e-05,0.0,0 STARLINK-5098,1 54013U 22125BB  24108.07769696  .00003998  00000-0  26900-3 0  9999,2 54013  53.2176  68.8414 0001555  90.7923 269.3248 15.08860875 85247,6917.817,95.436,540.757,538.606,0.0
54013.0,STARLINK-5098,PAYLOAD,2024-04-18 03:18:04,15.08821956,0.0001374,53.2159,64.0822,98.0581,262.0567,6.6901e-05,7.76e-06,0.0,0 STARLINK-5098,1 54013U 22125BB  24109.13755631  .00000776  00000-0  66901-4 0  9998,2 54013  53.2159  64.0822 0001374  98.0581 262.0567 15.08821956 85408,6917.936,95.439,540.751,538.85,0.0
54013.0,STARLINK-5098,PAYLOAD,2024-04-18 12:50:24,15.0882743,0.0001554,53.2165,62.2969,65.2697,294.8457,0.00094276,0.00014743,0.0,0 STARLINK-5098,1 54013U 22125BB  24109.53500493  .00014743  00000-0  94276-3 0  9990,2 54013  53.2165  62.2969 0001554  65.2697 294.8457 15.08827430 85416,6917.919,95.438,540.859,538.709,0.0
54013.0,STARLINK-5098,PAYLOAD,2024-04-18 19:11:56,15.08840587,0.0001327,53.216,61.1064,75.3418,284.7721,0.0012989,0.00020445,0.0,0 STARLINK-5098,1 54013U 22125BB  24109.79996474  .00020445  00000-0  12989-2 0  9992,2 54013  53.2160  61.1064 0001327  75.3418 284.7721 15.08840587 85450,6917.879,95.438,540.662,538.826,0.0
54013.0,STARLINK-5098,PAYLOAD,2024-04-19 03:08:52,15.08860929,0.000151,53.2162,59.6203,72.9663,287.1495,0.0016342,0.00025831,0.0,0 STARLINK-5098,1 54013U 22125BB  24110.13116211  .00025831  00000-0  16342-2 0  9996,2 54013  53.2162  59.6203 0001510  72.9663 287.1495 15.08860929 85556,6917.816,95.436,540.726,538.637,0.0
54013.0,STARLINK-5098,PAYLOAD,2024-04-19 06:19:38,15.08869117,0.0001431,53.2165,59.0238,88.6081,271.5075,0.0016018,0.00025317,0.0,0 STARLINK-5098,1 54013U 22125BB  24110.26363817  .00025317  00000-0  16018-2 0  9995,2 54013  53.2165  59.0238 0001431  88.6081 271.5075 15.08869117 85527,6917.791,95.436,540.646,538.666,0.0
54013.0,STARLINK-5098,PAYLOAD,2024-04-20 01:24:17,15.08847495,0.0001535,53.217,55.4562,93.7814,266.3354,0.0025097,0.00039888,0.0,0 STARLINK-5098,1 54013U 22125BB  24111.05853320  .00039888  00000-0  25097-2 0  9991,2 54013  53.2170  55.4562 0001535  93.7814 266.3354 15.08847495 85694,6917.857,95.437,540.784,538.661,0.0
54013.0,STARLINK-5098,PAYLOAD,2024-04-20 06:10:26,15.08853288,0.0001945,53.2174,54.559,113.7815,246.3381,0.0022823,0.00036235,0.0,0 STARLINK-5098,1 54013U 22125BB  24111.25725284  .00036235  00000-0  22823-2 0  9997,2 54013  53.2174  54.5590 0001945 113.7815 246.3381 15.08853288 85727,6917.84,95.437,541.05,538.359,0.0
54013.0,STARLINK-5098,PAYLOAD,2024-04-20 20:28:54,15.08852581,0.0002468,53.2181,51.8888,106.7767,253.3496,0.001385,0.00021831,0.0,0 STARLINK-5098,1 54013U 22125BB  24111.85341407  .00021831  00000-0  13850-2 0  9990,2 54013  53.2181  51.8888 0002468 106.7767 253.3496 15.08852581 85814,6917.842,95.437,541.414,538.0,0.0
54013.0,STARLINK-5098,PAYLOAD,2024-04-21 02:50:27,15.0886036,0.0001609,53.218,50.6981,96.9269,263.1906,0.0016639,0.00026307,0.0,0 STARLINK-5098,1 54013U 22125BB  24112.11837216  .00026307  00000-0  16639-2 0  9999,2 54013  53.2180  50.6981 0001609  96.9269 263.1906 15.08860360 85805,6917.818,95.436,540.796,538.57,0.0
54013.0,STARLINK-5098,PAYLOAD,2024-04-21 20:19:42,15.08832788,0.0002007,53.2185,47.4279,125.6196,234.4983,0.0015146,0.00023894,0.0,0 STARLINK-5098,1 54013U 22125BB  24112.84702407  .00023894  00000-0  15146-2 0  9992,2 54013  53.2185  47.4279 0002007 125.6196 234.4983 15.08832788 85962,6917.902,95.438,541.156,538.379,0.0
54013.0,STARLINK-5098,PAYLOAD,2024-04-22 02:41:15,15.08834194,0.0001601,53.2184,46.239,121.5951,238.5197,0.0019365,0.00030661,0.0,0 STARLINK-5098,1 54013U 22125BB  24113.11198643  .00030661  00000-0  19365-2 0  9991,2 54013  53.2184  46.2390 0001601 121.5951 238.5197 15.08834194 85959,6917.898,95.438,540.871,538.656,0.0
54013.0,STARLINK-5098,PAYLOAD,2024-04-22 18:35:06,15.08854917,0.0002025,53.2186,43.2678,115.2057,244.9145,0.0010896,0.00017103,0.0,0 STARLINK-5098,1 54013U 22125BB  24113.77438489  .00017103  00000-0  10896-2 0  9994,2 54013  53.2186  43.2678 0002025 115.2057 244.9145 15.08854917 86102,6917.835,95.437,541.101,538.299,0.0
54013.0,STARLINK-5098,PAYLOAD,2024-04-23 05:42:47,15.08881225,0.0001488,53.2175,41.1833,106.0207,254.0949,0.0012935,0.00020381,0.0,0 STARLINK-5098,1 54013U 22125BB  24114.23805157  .00020381  00000-0  12935-2 0  9994,2 54013  53.2175  41.1833 0001488 106.0207 254.0949 15.08881225 86170,6917.754,95.435,540.649,538.59,0.0
54013.0,STARLINK-5098,PAYLOAD,2024-04-24 02:22:47,15.08873589,0.0001393,53.2182,37.3204,88.7585,271.3567,0.0007856,0.00012248,0.0,0 STARLINK-5098,1 54013U 22125BB  24115.09916496  .00012248  00000-0  78560-3 0  9998,2 54013  53.2182  37.3204 0001393  88.7585 271.3567 15.08873589 86304,6917.778,95.435,540.606,538.679,0.0
54013.0,STARLINK-5098,PAYLOAD,2024-04-25 02:13:34,15.08861838,0.0001264,53.2175,32.8611,114.6478,245.4646,0.0011978,0.00018838,0.0,0 STARLINK-5098,1 54013U 22125BB  24116.09276492  .00018838  00000-0  11978-2 0  9994,2 54013  53.2175  32.8611 0001264 114.6478 245.4646 15.08861838 86455,6917.814,95.436,540.553,538.804,0.0
54013.0,STARLINK-5098,PAYLOAD,2024-04-25 22:53:36,15.08838262,0.0001318,53.2181,28.9986,119.1175,240.9949,0.0010918,0.0001713,0.0,0 STARLINK-5098,1 54013U 22125BB  24116.95388997  .00017130  00000-0  10918-2 0  9990,2 54013  53.2181  28.9986 0001318 119.1175 240.9949 15.08838262 86537,6917.886,95.438,540.662,538.839,0.0
54013.0,STARLINK-5098,PAYLOAD,2024-04-26 00:28:59,15.08841134,0.0001362,53.2175,28.7022,105.7284,254.3858,0.0012888,0.00020283,0.0,0 STARLINK-5098,1 54013U 22125BB  24117.02013134  .00020283  00000-0  12888-2 0  9998,2 54013  53.2175  28.7022 0001362 105.7284 254.3858 15.08841134 86596,6917.877,95.437,540.684,538.8,0.0
54013.0,STARLINK-5098,PAYLOAD,2024-04-26 11:36:41,15.0885014,0.0001552,53.2183,26.6158,82.1351,277.9817,0.00074275,0.00011556,0.0,0 STARLINK-5098,1 54013U 22125BB  24117.48381051  .00011556  00000-0  74275-3 0  9996,2 54013  53.2183  26.6158 0001552  82.1351 277.9817 15.08850140 86667,6917.849,95.437,540.788,538.641,0.0
